[Satellite]
VERSION=1.1
NAME=FLOCK 2K-09
NICKNAME=FLOCK 2K-09
TLE1=1 42896U 17042BZ  18020.70870971  .00008967  00000-0  26227-3 0  9995
TLE2=2 42896  96.9941 284.8555 0010956 273.8646  86.1346 15.35418355 29170
